GLOBALSTAR M057 [-]     
1 25943U 99058A   23353.56465170 -.00000084  00000+0  76584-4 0  9990
2 25943  51.9985  96.6043 0001756 337.3477  22.7295 12.24780473100076
GLOBALSTAR M059 [-]     
1 25944U 99058B   23353.00127978 -.00000044  00000+0  52465-3 0  9998
2 25944  52.0012 244.7515 0001186  44.1600  59.6149 11.99958476508472
GLOBALSTAR M056 [-]     
1 25945U 99058C   23352.93665840 -.00000098  00000+0 -12121-3 0  9990
2 25945  51.9965 260.9193 0000903 113.1053 326.9698 12.04774538 96838
GLOBALSTAR M031 [-]     
1 25946U 99058D   23353.87672193 -.00000047  00000+0  44608-3 0  9992
2 25946  51.9926 183.3003 0002389 124.3488 344.9445 12.15999154 98444
GLOBALSTAR M039 [-]     
1 25961U 99062A   23353.68220911 -.00000057  00000+0  26240-3 0  9993
2 25961  51.9830 130.1447 0002625 196.1556 163.9227 12.62277347111351
GLOBALSTAR M034 [-]     
1 25962U 99062B   23353.17142753 -.00000011  00000+0  11067-2 0  9995
2 25962  51.9895 350.6791 0014229  89.8024 350.1418 11.79421223 73962
GLOBALSTAR M029 [-]     
1 25963U 99062C   23353.72323578 -.00000054  00000+0  39720-3 0  9997
2 25963  51.9786 131.2974 0003724 122.2738 344.8170 11.99871999103690
GLOBALSTAR M061 [-]     
1 25964U 99062D   23353.81193983 -.00000073  00000+0  11153-3 0  9994
2 25964  51.9757 165.8223 0006444  31.6563  73.5581 11.76755663 57267
